{"type": "FeatureCollection", "features": [ {"type": "Feature", "properties": {"norad_id": 34432, "name": "COSMOS 2251 DEB", "group": "cosmos-2251-debris", "lat": -32.52055876157728, "lon": 92.11263622251748, "alt_km": 990.9487014541282, "timestamp": "2025-12-12T11:38:31.806962+00:00", "meta": {"OBJECT_NAME": "COSMOS 2251 DEB", "OBJECT_ID": "1993-036RZ", "EPOCH": "2025-12-11T10:27:02.840256", "MEAN_MOTION": 14.02899719, "ECCENTRICITY": 0.01826275, "INCLINATION": 73.8286, "RA_OF_ASC_NODE": 104.6225, "ARG_OF_PERICENTER": 187.494, "MEAN_ANOMALY": 238.0952, "EPHEMERIS_TYPE": 0, "CLASSIFICATION_TYPE": "U", "NORAD_CAT_ID": 34432, "ELEMENT_SET_NO": 999, "REV_AT_EPOCH": 85666, "BSTAR": 0.0022175295, "MEAN_MOTION_DOT": 3.958e-05, "MEAN_MOTION_DDOT": 0}, "tle": {"line1": "1 34432U 93036RZ  25345.43544954  .00003958  00000+0  22175-2 0  9997", "line2": "2 34432  73.8286 104.6225 0182627 187.4940 238.0952 14.02899719856661"}}, "geometry": {"type": "Point", "coordinates": [92.11263622251748, -32.52055876157728]}}, {"type": "Feature", "properties": {"norad_id": 34433, "name": "COSMOS 2251 DEB", "group": "cosmos-2251-debris", "lat": -18.30510698772014, "lon": 149.95021798202657, "alt_km": 779.0837543648186, "timestamp": "2025-12-12T11:38:31.806972+00:00", "meta": {"OBJECT_NAME": "COSMOS 2251 DEB", "OBJECT_ID": "1993-036SA", "EPOCH": "2025-12-11T22:08:09.146112", "MEAN_MOTION": 14.12847566, "ECCENTRICITY": 0.0152203, "INCLINATION": 74.0121, "RA_OF_ASC_NODE": 156.3888, "ARG_OF_PERICENTER": 294.6279, "MEAN_ANOMALY": 63.9071, "EPHEMERIS_TYPE": 0, "CLASSIFICATION_TYPE": "U", "NORAD_CAT_ID": 34433, "ELEMENT_SET_NO": 999, "REV_AT_EPOCH": 85938, "BSTAR": 0.0017616, "MEAN_MOTION_DOT": 3.632e-05, "MEAN_MOTION_DDOT": 0}, "tle": {"line1": "1 34433U 93036SA  25345.92232808  .00003632  00000+0  17616-2 0  9997", "line2": "2 34433  74.0121 156.3888 0152203 294.6279  63.9071 14.12847566859388"}}, "geometry": {"type": "Point", "coordinates": [149.95021798202657, -18.30510698772014]}}, {"type": "Feature", "properties": {"norad_id": 34434, "name": "COSMOS 2251 DEB", "group": "cosmos-2251-debris", "lat": -67.90757927917124, "lon": -124.698368289623, "alt_km": 988.3503973138049, "timestamp": "2025-12-12T11:38:31.806982+00:00", "meta": {"OBJECT_NAME": "COSMOS 2251 DEB", "OBJECT_ID": "1993-036SB", "EPOCH": "2025-12-12T01:57:31.795200", "MEAN_MOTION": 13.89806662, "ECCENTRICITY": 0.0275036, "INCLINATION": 74.0631, "RA_OF_ASC_NODE": 11.2438, "ARG_OF_PERICENTER": 148.6983, "MEAN_ANOMALY": 244.8181, "EPHEMERIS_TYPE": 0, "CLASSIFICATION_TYPE": "U", "NORAD_CAT_ID": 34434, "ELEMENT_SET_NO": 999, "REV_AT_EPOCH": 83957, "BSTAR": 0.004101, "MEAN_MOTION_DOT": 6.816e-05, "MEAN_MOTION_DDOT": 0}, "tle": {"line1": "1 34434U 93036SB  25346.08161800  .00006816  00000+0  41010-2 0  9991", "line2": "2 34434  74.0631  11.2438 0275036 148.6983 244.8181 13.89806662839571"}}, "geometry": {"type": "Point", "coordinates": [-124.698368289623, -67.90757927917124]}}, {"type": "Feature", "properties": {"norad_id": 34446, "name": "COSMOS 2251 DEB", "group": "cosmos-2251-debris", "lat": 22.215296935145613, "lon": 64.47099435469642, "alt_km": 763.2148593524826, "timestamp": "2025-12-12T11:38:31.806992+00:00", "meta": {"OBJECT_NAME": "COSMOS 2251 DEB", "OBJECT_ID": "1993-036SP", "EPOCH": "2025-12-11T07:22:20.954208", "MEAN_MOTION": 14.49350894, "ECCENTRICITY": 0.00512241, "INCLINATION": 74.0423, "RA_OF_ASC_NODE": 59.9681, "ARG_OF_PERICENTER": 198.3289, "MEAN_ANOMALY": 161.6028, "EPHEMERIS_TYPE": 0, "CLASSIFICATION_TYPE": "U", "NORAD_CAT_ID": 34446, "ELEMENT_SET_NO": 999, "REV_AT_EPOCH": 88673, "BSTAR": 0.0002443455, "MEAN_MOTION_DOT": 9.21e-06, "MEAN_MOTION_DDOT": 0}, "tle": {"line1": "1 34446U 93036SP  25345.30718697  .00000921  00000+0  24435-3 0  9994", "line2": "2 34446  74.0423  59.9681 0051224 198.3289 161.6028 14.49350894886738"}}, "geometry": {"type": "Point", "coordinates": [64.47099435469642, 22.215296935145613]}}, {"type": "Feature", "properties": {"norad_id": 34449, "name": "COSMOS 2251 DEB", "group": "cosmos-2251-debris", "lat": 48.38634257550083, "lon": -127.73012887819993, "alt_km": 562.3019891507292, "timestamp": "2025-12-12T11:38:31.807002+00:00", "meta": {"OBJECT_NAME": "COSMOS 2251 DEB", "OBJECT_ID": "1993-036SS", "EPOCH": "2025-12-11T08:02:08.268288", "MEAN_MOTION": 14.94757547, "ECCENTRICITY": 0.00233275, "INCLINATION": 74.033, "RA_OF_ASC_NODE": 73.3923, "ARG_OF_PERICENTER": 116.6718, "MEAN_ANOMALY": 304.6957, "EPHEMERIS_TYPE": 0, "CLASSIFICATION_TYPE": "U", "NORAD_CAT_ID": 34449, "ELEMENT_SET_NO": 999, "REV_AT_EPOCH": 88672, "BSTAR": 0.0059474775, "MEAN_MOTION_DOT": 0.00065566, "MEAN_MOTION_DDOT": 0}, "tle": {"line1": "1 34449U 93036SS  25345.33481792  .00065566  00000+0  59475-2 0  9990", "line2": "2 34449  74.0330  73.3923 0023327 116.6718 304.6957 14.94757547886725"}}, "geometry": {"type": "Point", "coordinates": [-127.73012887819993, 48.38634257550083]}}, {"type": "Feature", "properties": {"norad_id": 34451, "name": "COSMOS 2251 DEB", "group": "cosmos-2251-debris", "lat": 71.69838203732323, "lon": -151.4891597290251, "alt_km": 556.687633083442, "timestamp": "2025-12-12T11:38:31.807012+00:00", "meta": {"OBJECT_NAME": "COSMOS 2251 DEB", "OBJECT_ID": "1993-036SU", "EPOCH": "2025-12-11T17:32:30.157440", "MEAN_MOTION": 14.95485056, "ECCENTRICITY": 0.00243257, "INCLINATION": 74.0461, "RA_OF_ASC_NODE": 89.9042, "ARG_OF_PERICENTER": 110.1936, "MEAN_ANOMALY": 250.1868, "EPHEMERIS_TYPE": 0, "CLASSIFICATION_TYPE": "U", "NORAD_CAT_ID": 34451, "ELEMENT_SET_NO": 999, "REV_AT_EPOCH": 88620, "BSTAR": 0.0042516406, "MEAN_MOTION_DOT": 0.0004764, "MEAN_MOTION_DDOT": 0}, "tle": {"line1": "1 34451U 93036SU  25345.73090460  .00047640  00000+0  42516-2 0  9996", "line2": "2 34451  74.0461  89.9042 0024325 110.1936 250.1868 14.95485056886201"}}, "geometry": {"type": "Point", "coordinates": [-151.4891597290251, 71.69838203732323]}}, {"type": "Feature", "properties": {"norad_id": 34452, "name": "COSMOS 2251 DEB", "group": "cosmos-2251-debris", "lat": 5.928675062728546, "lon": 1.6441989807197581, "alt_km": 529.5487920881314, "timestamp": "2025-12-12T11:38:31.807022+00:00", "meta": {"OBJECT_NAME": "COSMOS 2251 DEB", "OBJECT_ID": "1993-036SV", "EPOCH": "2025-12-12T00:25:51.070080", "MEAN_MOTION": 15.11648851, "ECCENTRICITY": 0.0066367, "INCLINATION": 74.0361, "RA_OF_ASC_NODE": 184.314, "ARG_OF_PERICENTER": 260.8574, "MEAN_ANOMALY": 252.5595, "EPHEMERIS_TYPE": 0, "CLASSIFICATION_TYPE": "U", "NORAD_CAT_ID": 34452, "ELEMENT_SET_NO": 999, "REV_AT_EPOCH": 90651, "BSTAR": 0.0010905, "MEAN_MOTION_DOT": 0.00019569, "MEAN_MOTION_DDOT": 0}, "tle": {"line1": "1 34452U 93036SV  25346.01795220  .00019569  00000+0  10905-2 0  9991", "line2": "2 34452  74.0361 184.3140 0066367 260.8574 252.5595 15.11648851906516"}}, "geometry": {"type": "Point", "coordinates": [1.6441989807197581, 5.928675062728546]}}, {"type": "Feature", "properties": {"norad_id": 34453, "name": "COSMOS 2251 DEB", "group": "cosmos-2251-debris", "lat": 4.978742772219194, "lon": 101.18162330006498, "alt_km": 281.1869010182545, "timestamp": "2025-12-12T11:38:31.807032+00:00", "meta": {"OBJECT_NAME": "COSMOS 2251 DEB", "OBJECT_ID": "1993-036SW", "EPOCH": "2025-12-11T14:27:42.338304", "MEAN_MOTION": 15.84318008, "ECCENTRICITY": 0.00235977, "INCLINATION": 74.1047, "RA_OF_ASC_NODE": 101.7985, "ARG_OF_PERICENTER": 343.8106, "MEAN_ANOMALY": 16.2368, "EPHEMERIS_TYPE": 0, "CLASSIFICATION_TYPE": "U", "NORAD_CAT_ID": 34453, "ELEMENT_SET_NO": 999, "REV_AT_EPOCH": 88849, "BSTAR": 0.018648609, "MEAN_MOTION_DOT": 0.03671882, "MEAN_MOTION_DDOT": 0.013569086}, "tle": {"line1": "1 34453U 93036SW  25345.60257336  .03671882  13569-1  18649-1 0  9990", "line2": "2 34453  74.1047 101.7985 0023597 343.8106  16.2368 15.84318008888497"}}, "geometry": {"type": "Point", "coordinates": [101.18162330006498, 4.978742772219194]}}, {"type": "Feature", "properties": {"norad_id": 34454, "name": "COSMOS 2251 DEB", "group": "cosmos-2251-debris", "lat": -73.33491565202355, "lon": -154.601518087471, "alt_km": 758.8838510099713, "timestamp": "2025-12-12T11:38:31.807042+00:00", "meta": {"OBJECT_NAME": "COSMOS 2251 DEB", "OBJECT_ID": "1993-036SX", "EPOCH": "2025-12-11T21:00:58.891968", "MEAN_MOTION": 14.38806452, "ECCENTRICITY": 0.0035564, "INCLINATION": 74.0588, "RA_OF_ASC_NODE": 279.2283, "ARG_OF_PERICENTER": 341.9036, "MEAN_ANOMALY": 18.085, "EPHEMERIS_TYPE": 0, "CLASSIFICATION_TYPE": "U", "NORAD_CAT_ID": 34454, "ELEMENT_SET_NO": 999, "REV_AT_EPOCH": 88055, "BSTAR": 0.00041868, "MEAN_MOTION_DOT": 1.27e-05, "MEAN_MOTION_DDOT": 0}, "tle": {"line1": "1 34454U 93036SX  25345.87568162  .00001270  00000+0  41868-3 0  9992", "line2": "2 34454  74.0588 279.2283 0035564 341.9036  18.0850 14.38806452880555"}}, "geometry": {"type": "Point", "coordinates": [-154.601518087471, -73.33491565202355]}}, {"type": "Feature", "properties": {"norad_id": 34459, "name": "COSMOS 2251 DEB", "group": "cosmos-2251-debris", "lat": -49.37627496502719, "lon": -124.94595250685201, "alt_km": 764.3753900265147, "timestamp": "2025-12-12T11:38:31.807052+00:00", "meta": {"OBJECT_NAME": "COSMOS 2251 DEB", "OBJECT_ID": "1993-036TC", "EPOCH": "2025-12-12T03:18:35.877600", "MEAN_MOTION": 14.00498403, "ECCENTRICITY": 0.0192059, "INCLINATION": 74.0792, "RA_OF_ASC_NODE": 255.0888, "ARG_OF_PERICENTER": 325.0061, "MEAN_ANOMALY": 33.8571, "EPHEMERIS_TYPE": 0, "CLASSIFICATION_TYPE": "U", "NORAD_CAT_ID": 34459, "ELEMENT_SET_NO": 999, "REV_AT_EPOCH": 85703, "BSTAR": 0.00078203, "MEAN_MOTION_DOT": 1.337e-05, "MEAN_MOTION_DDOT": 0}, "tle": {"line1": "1 34459U 93036TC  25346.13791525  .00001337  00000+0  78203-3 0  9995", "line2": "2 34459  74.0792 255.0888 0192059 325.0061  33.8571 14.00498403857038"}}, "geometry": {"type": "Point", "coordinates": [-124.94595250685201, -49.37627496502719]}}]}